{"fetched_at":"2026-03-29T16:36:15Z","count":15609,"tles":[{"name":"STARLINK-30505","line1":"1 57972U 23151J   26087.71951121  .00031564  00000+0  11506-2 0  9995","line2":"2 57972  43.0027 228.7858 0003242 271.5240  88.5240 15.27606169138675","category":"Starlink"}]}