{
  "norad_id": 57972,
  "name": "STARLINK-30505",
  "history": [
    {
      "epoch": "2026-03-28T17:16:05.768544",
      "apogee_km": 485.19545194200145,
      "perigee_km": 480.7460235740655,
      "latitude_deg": -42.98218925589297,
      "longitude_deg": 46.273076159879565,
      "semi_major_axis_km": 6861.107737758033,
      "eccentricity": 0.00032425,
      "inclination_deg": 43.0027,
      "raan_deg": 228.7858,
      "arg_perigee_deg": 271.524,
      "mean_anomaly_deg": 88.524,
      "mean_motion_rev_day": 15.27606169
    }
  ]
}